{"fetched_at":"2026-03-28T16:33:49Z","count":6709,"tles":[{"name":"RCM-3","line1":"1 44323U 19033B   26086.57056267 -.00000097  00000+0 -39923-5 0  9990","line2":"2 44323  97.7594  95.2644 0001378  89.9284 270.2093 14.92589978369922","category":"Other"}]}